{"type": "FeatureCollection", "features": [ {"type": "Feature", "properties": {"norad_id": 67051, "name": "STARLINK-35706", "group": "last-30-days", "lat": 20.397308248905524, "lon": 144.0481878999288, "alt_km": 324.2696486115219, "timestamp": "2025-12-22T18:58:52.141866+00:00", "meta": {"OBJECT_NAME": "STARLINK-35706", "OBJECT_ID": "2025-294X", "EPOCH": "2025-12-22T06:00:02.000160", "MEAN_MOTION": 15.83540312, "ECCENTRICITY": 0.00013988, "INCLINATION": 43.0003, "RA_OF_ASC_NODE": 123.8477, "ARG_OF_PERICENTER": 266.5871, "MEAN_ANOMALY": 279.3517, "EPHEMERIS_TYPE": 0, "CLASSIFICATION_TYPE": "U", "NORAD_CAT_ID": 67051, "ELEMENT_SET_NO": 999, "REV_AT_EPOCH": 183, "BSTAR": -0.0097143119, "MEAN_MOTION_DOT": -0.01918257, "MEAN_MOTION_DDOT": 0}, "tle": {"line1": "1 67051U 25294X   25356.25002315 -.01918257  00000+0 -97143-2 0  9990", "line2": "2 67051  43.0003 123.8477 0001398 266.5871 279.3517 15.83540312  1837"}}, "geometry": {"type": "Point", "coordinates": [144.0481878999288, 20.397308248905524]}}, {"type": "Feature", "properties": {"norad_id": 67052, "name": "STARLINK-35720", "group": "last-30-days", "lat": 21.639889558909022, "lon": 145.723242181206, "alt_km": 323.9831004493626, "timestamp": "2025-12-22T18:58:52.141881+00:00", "meta": {"OBJECT_NAME": "STARLINK-35720", "OBJECT_ID": "2025-294Y", "EPOCH": "2025-12-22T06:00:02.000160", "MEAN_MOTION": 15.83536912, "ECCENTRICITY": 0.00011973, "INCLINATION": 43.0004, "RA_OF_ASC_NODE": 123.8428, "ARG_OF_PERICENTER": 268.6367, "MEAN_ANOMALY": 279.3079, "EPHEMERIS_TYPE": 0, "CLASSIFICATION_TYPE": "U", "NORAD_CAT_ID": 67052, "ELEMENT_SET_NO": 999, "REV_AT_EPOCH": 182, "BSTAR": -0.0097079358, "MEAN_MOTION_DOT": -0.01916688, "MEAN_MOTION_DDOT": 0}, "tle": {"line1": "1 67052U 25294Y   25356.25002315 -.01916688  00000+0 -97079-2 0  9995", "line2": "2 67052  43.0004 123.8428 0001197 268.6367 279.3079 15.83536912  1828"}}, "geometry": {"type": "Point", "coordinates": [145.723242181206, 21.639889558909022]}}, {"type": "Feature", "properties": {"norad_id": 67053, "name": "STARLINK-35739", "group": "last-30-days", "lat": 23.01204423193612, "lon": 147.63460863771127, "alt_km": 323.91095344088353, "timestamp": "2025-12-22T18:58:52.141893+00:00", "meta": {"OBJECT_NAME": "STARLINK-35739", "OBJECT_ID": "2025-294Z", "EPOCH": "2025-12-22T06:00:02.000160", "MEAN_MOTION": 15.83525931, "ECCENTRICITY": 0.00013099, "INCLINATION": 43.0005, "RA_OF_ASC_NODE": 123.8368, "ARG_OF_PERICENTER": 267.1459, "MEAN_ANOMALY": 283.0607, "EPHEMERIS_TYPE": 0, "CLASSIFICATION_TYPE": "U", "NORAD_CAT_ID": 67053, "ELEMENT_SET_NO": 999, "REV_AT_EPOCH": 148, "BSTAR": -0.0097154766, "MEAN_MOTION_DOT": -0.01917213, "MEAN_MOTION_DDOT": 0}, "tle": {"line1": "1 67053U 25294Z   25356.25002315 -.01917213  00000+0 -97155-2 0  9996", "line2": "2 67053  43.0005 123.8368 0001309 267.1459 283.0607 15.83525931  1484"}}, "geometry": {"type": "Point", "coordinates": [147.63460863771127, 23.01204423193612]}}, {"type": "Feature", "properties": {"norad_id": 67054, "name": "STARLINK-35754", "group": "last-30-days", "lat": 24.477775905679557, "lon": 149.75892033600937, "alt_km": 323.67628401803177, "timestamp": "2025-12-22T18:58:52.141903+00:00", "meta": {"OBJECT_NAME": "STARLINK-35754", "OBJECT_ID": "2025-294AA", "EPOCH": "2025-12-22T06:00:02.000160", "MEAN_MOTION": 15.83501354, "ECCENTRICITY": 0.00012916, "INCLINATION": 43.0003, "RA_OF_ASC_NODE": 123.8307, "ARG_OF_PERICENTER": 271.3577, "MEAN_ANOMALY": 281.3325, "EPHEMERIS_TYPE": 0, "CLASSIFICATION_TYPE": "U", "NORAD_CAT_ID": 67054, "ELEMENT_SET_NO": 999, "REV_AT_EPOCH": 164, "BSTAR": -0.0097221754, "MEAN_MOTION_DOT": -0.01916372, "MEAN_MOTION_DDOT": 0}, "tle": {"line1": "1 67054U 25294AA  25356.25002315 -.01916372  00000+0 -97222-2 0  9997", "line2": "2 67054  43.0003 123.8307 0001291 271.3577 281.3325 15.83501354  1643"}}, "geometry": {"type": "Point", "coordinates": [149.75892033600937, 24.477775905679557]}}, {"type": "Feature", "properties": {"norad_id": 67055, "name": "STARLINK-35790", "group": "last-30-days", "lat": 25.861547621041247, "lon": 151.8526621540851, "alt_km": 323.67294399733873, "timestamp": "2025-12-22T18:58:52.141913+00:00", "meta": {"OBJECT_NAME": "STARLINK-35790", "OBJECT_ID": "2025-294AB", "EPOCH": "2025-12-22T06:00:02.000160", "MEAN_MOTION": 15.83490721, "ECCENTRICITY": 0.00013485, "INCLINATION": 43.0001, "RA_OF_ASC_NODE": 123.8242, "ARG_OF_PERICENTER": 266.662, "MEAN_ANOMALY": 288.4058, "EPHEMERIS_TYPE": 0, "CLASSIFICATION_TYPE": "U", "NORAD_CAT_ID": 67055, "ELEMENT_SET_NO": 999, "REV_AT_EPOCH": 183, "BSTAR": -0.0097588196, "MEAN_MOTION_DOT": -0.0192185, "MEAN_MOTION_DDOT": 0}, "tle": {"line1": "1 67055U 25294AB  25356.25002315 -.01921850  00000+0 -97588-2 0  9990", "line2": "2 67055  43.0001 123.8242 0001348 266.6620 288.4058 15.83490721  1836"}}, "geometry": {"type": "Point", "coordinates": [151.8526621540851, 25.861547621041247]}}, {"type": "Feature", "properties": {"norad_id": 67056, "name": "STARLINK-36143", "group": "last-30-days", "lat": 29.354507666149388, "lon": 157.61671847748997, "alt_km": 323.0492515818987, "timestamp": "2025-12-22T18:58:52.141925+00:00", "meta": {"OBJECT_NAME": "STARLINK-36143", "OBJECT_ID": "2025-294AC", "EPOCH": "2025-12-22T06:00:02.000160", "MEAN_MOTION": 15.83469996, "ECCENTRICITY": 0.00012247, "INCLINATION": 43.0001, "RA_OF_ASC_NODE": 123.8083, "ARG_OF_PERICENTER": 272.6781, "MEAN_ANOMALY": 288.6156, "EPHEMERIS_TYPE": 0, "CLASSIFICATION_TYPE": "U", "NORAD_CAT_ID": 67056, "ELEMENT_SET_NO": 999, "REV_AT_EPOCH": 183, "BSTAR": -0.0097382037, "MEAN_MOTION_DOT": -0.01916536, "MEAN_MOTION_DDOT": 0}, "tle": {"line1": "1 67056U 25294AC  25356.25002315 -.01916536  00000+0 -97382-2 0  9998", "line2": "2 67056  43.0001 123.8083 0001224 272.6781 288.6156 15.83469996  1839"}}, "geometry": {"type": "Point", "coordinates": [157.61671847748997, 29.354507666149388]}}, {"type": "Feature", "properties": {"norad_id": 67057, "name": "STARLINK-36141", "group": "last-30-days", "lat": 28.17333747224424, "lon": 155.58084552416344, "alt_km": 323.2907716976915, "timestamp": "2025-12-22T18:58:52.141935+00:00", "meta": {"OBJECT_NAME": "STARLINK-36141", "OBJECT_ID": "2025-294AD", "EPOCH": "2025-12-22T06:00:02.000160", "MEAN_MOTION": 15.83479589, "ECCENTRICITY": 0.00012332, "INCLINATION": 42.9999, "RA_OF_ASC_NODE": 123.8141, "ARG_OF_PERICENTER": 267.9756, "MEAN_ANOMALY": 291.1599, "EPHEMERIS_TYPE": 0, "CLASSIFICATION_TYPE": "U", "NORAD_CAT_ID": 67057, "ELEMENT_SET_NO": 999, "REV_AT_EPOCH": 175, "BSTAR": -0.0097418419, "MEAN_MOTION_DOT": -0.01917936, "MEAN_MOTION_DDOT": 0}, "tle": {"line1": "1 67057U 25294AD  25356.25002315 -.01917936  00000+0 -97418-2 0  9994", "line2": "2 67057  42.9999 123.8141 0001233 267.9756 291.1599 15.83479589  1758"}}, "geometry": {"type": "Point", "coordinates": [155.58084552416344, 28.17333747224424]}}, {"type": "Feature", "properties": {"norad_id": 67058, "name": "STARLINK-35767", "group": "last-30-days", "lat": 27.05594753922909, "lon": 153.73918866353367, "alt_km": 323.3953043134543, "timestamp": "2025-12-22T18:58:52.141947+00:00", "meta": {"OBJECT_NAME": "STARLINK-35767", "OBJECT_ID": "2025-294AE", "EPOCH": "2025-12-22T06:00:02.000160", "MEAN_MOTION": 15.83482257, "ECCENTRICITY": 0.00012171, "INCLINATION": 43.0003, "RA_OF_ASC_NODE": 123.8189, "ARG_OF_PERICENTER": 268.9983, "MEAN_ANOMALY": 288.1485, "EPHEMERIS_TYPE": 0, "CLASSIFICATION_TYPE": "U", "NORAD_CAT_ID": 67058, "ELEMENT_SET_NO": 999, "REV_AT_EPOCH": 164, "BSTAR": -0.0097230048, "MEAN_MOTION_DOT": -0.0191491, "MEAN_MOTION_DDOT": 0}, "tle": {"line1": "1 67058U 25294AE  25356.25002315 -.01914910  00000+0 -97230-2 0  9996", "line2": "2 67058  43.0003 123.8189 0001217 268.9983 288.1485 15.83482257  1648"}}, "geometry": {"type": "Point", "coordinates": [153.73918866353367, 27.05594753922909]}}, {"type": "Feature", "properties": {"norad_id": 67059, "name": "HULIANWANG DIGUI-119", "group": "last-30-days", "lat": -33.598999559336484, "lon": -64.06320074944819, "alt_km": 804.9826173991296, "timestamp": "2025-12-22T18:58:52.141960+00:00", "meta": {"OBJECT_NAME": "HULIANWANG DIGUI-119", "OBJECT_ID": "2025-295A", "EPOCH": "2025-12-22T05:43:44.691744", "MEAN_MOTION": 14.24613459, "ECCENTRICITY": 0.00139865, "INCLINATION": 50.0069, "RA_OF_ASC_NODE": 332.1614, "ARG_OF_PERICENTER": 280.0332, "MEAN_ANOMALY": 79.9003, "EPHEMERIS_TYPE": 0, "CLASSIFICATION_TYPE": "U", "NORAD_CAT_ID": 67059, "ELEMENT_SET_NO": 999, "REV_AT_EPOCH": 147, "BSTAR": -2.4864632e-05, "MEAN_MOTION_DOT": -2.18e-06, "MEAN_MOTION_DDOT": 0}, "tle": {"line1": "1 67059U 25295A   25356.23871171 -.00000218  00000+0 -24865-4 0  9992", "line2": "2 67059  50.0069 332.1614 0013986 280.0332  79.9003 14.24613459  1473"}}, "geometry": {"type": "Point", "coordinates": [-64.06320074944819, -33.598999559336484]}}, {"type": "Feature", "properties": {"norad_id": 67060, "name": "HULIANWANG DIGUI-120", "group": "last-30-days", "lat": -21.058660021188818, "lon": -49.05796033581879, "alt_km": 802.7340460380447, "timestamp": "2025-12-22T18:58:52.141974+00:00", "meta": {"OBJECT_NAME": "HULIANWANG DIGUI-120", "OBJECT_ID": "2025-295B", "EPOCH": "2025-12-22T05:39:14.251968", "MEAN_MOTION": 14.25710082, "ECCENTRICITY": 0.00131929, "INCLINATION": 50.0058, "RA_OF_ASC_NODE": 332.1457, "ARG_OF_PERICENTER": 280.9307, "MEAN_ANOMALY": 79.0123, "EPHEMERIS_TYPE": 0, "CLASSIFICATION_TYPE": "U", "NORAD_CAT_ID": 67060, "ELEMENT_SET_NO": 999, "REV_AT_EPOCH": 147, "BSTAR": -2.8527047e-05, "MEAN_MOTION_DOT": -2.28e-06, "MEAN_MOTION_DDOT": 0}, "tle": {"line1": "1 67060U 25295B   25356.23558162 -.00000228  00000+0 -28527-4 0  9996", "line2": "2 67060  50.0058 332.1457 0013192 280.9307  79.0123 14.25710082  1473"}}, "geometry": {"type": "Point", "coordinates": [-49.05796033581879, -21.058660021188818]}}]}